{
  "norad_id": 66987,
  "name": "STARLINK-36147",
  "history": [
    {
      "epoch": "2026-03-28T21:13:06.703104",
      "apogee_km": 484.42115968369217,
      "perigee_km": 481.4969605428714,
      "latitude_deg": 42.692062645083446,
      "longitude_deg": -116.42588544008322,
      "semi_major_axis_km": 6861.096060113281,
      "eccentricity": 0.0002131,
      "inclination_deg": 42.996,
      "raan_deg": 274.9877,
      "arg_perigee_deg": 263.394,
      "mean_anomaly_deg": 96.6669,
      "mean_motion_rev_day": 15.27610069
    }
  ]
}