{"fetched_at":"2026-03-29T16:36:15Z","count":15609,"tles":[{"name":"STARLINK-36147","line1":"1 66987U 25288AE  26087.88410536  .00025432  00000+0  92964-3 0  9997","line2":"2 66987  42.9960 274.9877 0002131 263.3940  96.6669 15.27610069 18228","category":"Starlink"}]}